COMMENT,ORIGINATOR,NORAD_CAT_ID,OBJECT_NAME,OBJECT_TYPE,CLASSIFICATION_TYPE,INTLDES,EPOCH,EPOCH_MICROSECONDS,MEAN_MOTION,ECCENTRICITY,INCLINATION,RA_OF_ASC_NODE,ARG_OF_PERICENTER,MEAN_ANOMALY,EPHEMERIS_TYPE,ELEMENT_SET_NO,REV_AT_EPOCH,BSTAR,MEAN_MOTION_DOT,MEAN_MOTION_DDOT,FILE,TLE_LINE0,TLE_LINE1,TLE_LINE2,OBJECT_ID,OBJECT_NUMBER,SEMIMAJOR_AXIS,PERIOD,APOGEE,PERIGEE,DECAYED
"GENERATED VIA SPACETRACK.ORG API","18 SPCS","48888","SPACEBEE-103","PAYLOAD","U","21059K","2021-07-17 19:07:29","509248","15.11947007","0.0009526","97.5158","327.3079","168.3578","191.7875","0","999","332","0.000020029","0.00000279","0","3078756","0 SPACEBEE-103","1 48888U 21059K   21198.79686932  .00000279  00000-0  20029-4 0  9999","2 48888  97.5158 327.3079 0009526 168.3578 191.7875 15.11947007  3325","2021-059K","48888","6908.400","95.241","536.846","523.684","0"
"GENERATED VIA SPACETRACK.ORG API","18 SPCS","48888","SPACEBEE-103","PAYLOAD","U","21059K","2021-07-17 22:18:05","728608","15.11947242","0.0009534","97.5158","327.4382","167.831","192.3153","0","999","334","0.000021519","0.00000305","0","3078808","0 SPACEBEE-103","1 48888U 21059K   21198.92923297  .00000305  00000-0  21519-4 0  9997","2 48888  97.5158 327.4382 0009534 167.8310 192.3153 15.11947242  3349","2021-059K","48888","6908.399","95.241","536.851","523.678","0"
"GENERATED VIA SPACETRACK.ORG API","18 SPCS","48888","SPACEBEE-103","PAYLOAD","U","21059K","2021-07-18 07:49:54","392736","15.11947601","0.0009571","97.5159","327.8288","166.5002","193.6486","0","999","340","0.000022774","0.00000326","0","3079181","0 SPACEBEE-103","1 48888U 21059K   21199.32632399  .00000326  00000-0  22774-4 0  9999","2 48888  97.5159 327.8288 0009571 166.5002 193.6486 15.11947601  3403","2021-059K","48888","6908.398","95.241","536.875","523.651","0"
"GENERATED VIA SPACETRACK.ORG API","18 SPCS","48888","SPACEBEE-103","PAYLOAD","U","21059K","2021-07-18 20:32:19","258080","15.11948188","0.0009623","97.5159","328.3497","164.7156","195.4367","0","999","348","0.000025325","0.0000037","0","3079435","0 SPACEBEE-103","1 48888U 21059K   21199.85577845  .00000370  00000-0  25325-4 0  9995","2 48888  97.5159 328.3497 0009623 164.7156 195.4367 15.11948188  3486","2021-059K","48888","6908.396","95.241","536.909","523.613","0"
"GENERATED VIA SPACETRACK.ORG API","18 SPCS","48888","SPACEBEE-103","PAYLOAD","U","21059K","2021-07-18 22:07:37","366464","15.11948248","0.0009627","97.5159","328.4148","164.4996","195.6531","0","999","349","0.000025631","0.00000375","0","3079483","0 SPACEBEE-103","1 48888U 21059K   21199.92196026  .00000375  00000-0  25631-4 0  9996","2 48888  97.5159 328.4148 0009627 164.4996 195.6531 15.11948248  3496","2021-059K","48888","6908.396","95.241","536.912","523.610","0"
"GENERATED VIA SPACETRACK.ORG API","18 SPCS","48888","SPACEBEE-103","PAYLOAD","U","21059K","2021-07-19 20:21:50","848416","15.11949235","0.0009707","97.516","329.3264","161.2737","198.8853","0","999","363","0.000029646","0.00000444","0","3080144","0 SPACEBEE-103","1 48888U 21059K   21200.84850519  .00000444  00000-0  29646-4 0  9991","2 48888  97.5160 329.3264 0009707 161.2737 198.8853 15.11949235  3639","2021-059K","48888","6908.393","95.241","536.964","523.552","0"
"GENERATED VIA SPACETRACK.ORG API","18 SPCS","48888","SPACEBEE-103","PAYLOAD","U","21059K","2021-07-20 07:28:57","512928","15.11950399","0.0009766","97.516","329.7822","160.0598","200.1016","0","999","370","0.000037063","0.00000572","0","3080394","0 SPACEBEE-103","1 48888U 21059K   21201.31177677  .00000572  00000-0  37063-4 0  9995","2 48888  97.5160 329.7822 0009766 160.0598 200.1016 15.11950399  3709","2021-059K","48888","6908.389","95.241","537.001","523.508","0"
"GENERATED VIA SPACETRACK.ORG API","18 SPCS","48888","SPACEBEE-103","PAYLOAD","U","21059K","2021-07-20 20:11:22","200288","15.11952105","0.000982","97.5161","330.303","157.9858","202.1796","0","999","378","0.000046","0.00000725","0","3080460","0 SPACEBEE-103","1 48888U 21059K   21201.84122917  .00000725  00000-0  46000-4 0  9991","2 48888  97.5161 330.3030 0009820 157.9858 202.1796 15.11952105  3786","2021-059K","48888","6908.384","95.241","537.033","523.465","0"
"GENERATED VIA SPACETRACK.ORG API","18 SPCS","48888","SPACEBEE-103","PAYLOAD","U","21059K","2021-07-21 07:18:28","807776","15.11953381","0.0009845","97.5161","330.7588","156.4911","203.6771","0","999","385","0.000052512","0.00000837","0","3081066","0 SPACEBEE-103","1 48888U 21059K   21202.30450009  .00000837  00000-0  52512-4 0  9998","2 48888  97.5161 330.7588 0009845 156.4911 203.6771 15.11953381  3853","2021-059K","48888","6908.380","95.241","537.047","523.444","0"
"GENERATED VIA SPACETRACK.ORG API","18 SPCS","48888","SPACEBEE-103","PAYLOAD","U","21059K","2021-07-21 07:18:28","807776","15.11953381","0.0009845","97.5161","330.7588","156.4911","203.6771","0","999","385","0.000052512","0.00000837","0","3081142","0 SPACEBEE-103","1 48888U 21059K   21202.30450009  .00000837  00000-0  52512-4 0  9998","2 48888  97.5161 330.7588 0009845 156.4911 203.6771 15.11953381  3853","2021-059K","48888","6908.380","95.241","537.047","523.444","0"
"GENERATED VIA SPACETRACK.ORG API","18 SPCS","48888","SPACEBEE-103","PAYLOAD","U","21059K","2021-07-21 20:00:53","451072","15.119547","0.0009887","97.5162","331.2797","154.8477","205.3237","0","999","393","0.000056608","0.00000907","0","3081362","0 SPACEBEE-103","1 48888U 21059K   21202.83395198  .00000907  00000-0  56608-4 0  9991","2 48888  97.5162 331.2797 0009887 154.8477 205.3237 15.11954700  3938","2021-059K","48888","6908.376","95.241","537.072","523.411","0"
"GENERATED VIA SPACETRACK.ORG API","18 SPCS","48888","SPACEBEE-103","PAYLOAD","U","21059K","2021-07-22 07:07:59","760480","15.11958668","0.0009891","97.5162","331.7356","153.5506","206.6231","0","999","400","0.000081763","0.00001339","0","3081746","0 SPACEBEE-103","1 48888U 21059K   21203.29721945  .00001339  00000-0  81763-4 0  9995","2 48888  97.5162 331.7356 0009891 153.5506 206.6231 15.11958668  4002","2021-059K","48888","6908.364","95.241","537.062","523.396","0"
"GENERATED VIA SPACETRACK.ORG API","18 SPCS","48888","SPACEBEE-103","PAYLOAD","U","21059K","2021-07-22 19:50:24","106560","15.11962855","0.0009925","97.5162","332.2563","151.9742","208.2025","0","999","408","0.00010664","0.00001766","0","3081921","0 SPACEBEE-103","1 48888U 21059K   21203.82666790  .00001766  00000-0  10664-3 0  9995","2 48888  97.5162 332.2563 0009925 151.9742 208.2025 15.11962855  4080","2021-059K","48888","6908.352","95.240","537.073","523.360","0"
"GENERATED VIA SPACETRACK.ORG API","18 SPCS","48888","SPACEBEE-103","PAYLOAD","U","21059K","2021-07-23 10:08:06","501408","15.11964796","0.0009934","97.5162","332.8424","150.1454","210.0345","0","999","417","0.00010622","0.00001759","0","3082068","0 SPACEBEE-103","1 48888U 21059K   21204.42229747  .00001759  00000-0  10622-3 0  9995","2 48888  97.5162 332.8424 0009934 150.1454 210.0345 15.11964796  4175","2021-059K","48888","6908.346","95.240","537.073","523.348","0"
"GENERATED VIA SPACETRACK.ORG API","18 SPCS","48888","SPACEBEE-103","PAYLOAD","U","21059K","2021-07-23 21:15:12","640608","15.11970029","0.0009984","97.5161","333.2983","148.6788","211.5039","0","999","424","0.0001398","0.00002336","0","3082281","0 SPACEBEE-103","1 48888U 21059K   21204.88556297  .00002336  00000-0  13980-3 0  9990","2 48888  97.5161 333.2983 0009984 148.6788 211.5039 15.11970029  4246","2021-059K","48888","6908.330","95.240","537.092","523.297","0"
"GENERATED VIA SPACETRACK.ORG API","18 SPCS","48888","SPACEBEE-103","PAYLOAD","U","21059K","2021-07-24 09:57:36","847584","15.11972921","0.0010072","97.5167","333.8188","146.79","213.3964","0","999","432","0.00014485","0.00002423","0","3082525","0 SPACEBEE-103","1 48888U 21059K   21205.41500981  .00002423  00000-0  14485-3 0  9997","2 48888  97.5167 333.8188 0010072 146.7900 213.3964 15.11972921  4329","2021-059K","48888","6908.321","95.240","537.144","523.228","0"
"GENERATED VIA SPACETRACK.ORG API","18 SPCS","48888","SPACEBEE-103","PAYLOAD","U","21059K","2021-07-25 09:47:06","865440","15.11977212","0.0010133","97.5169","334.7956","143.7724","216.4195","0","999","447","0.00012728","0.00002121","0","3082960","0 SPACEBEE-103","1 48888U 21059K   21206.40771835  .00002121  00000-0  12728-3 0  9998","2 48888  97.5169 334.7956 0010133 143.7724 216.4195 15.11977212  4477","2021-059K","48888","6908.308","95.240","537.173","523.173","0"
"GENERATED VIA SPACETRACK.ORG API","18 SPCS","48888","SPACEBEE-103","PAYLOAD","U","21059K","2021-07-25 09:47:06","865440","15.11977212","0.0010133","97.5169","334.7956","143.7724","216.4195","0","999","447","0.00012728","0.00002121","0","3082986","0 SPACEBEE-103","1 48888U 21059K   21206.40771835  .00002121  00000-0  12728-3 0  9998","2 48888  97.5169 334.7956 0010133 143.7724 216.4195 15.11977212  4477","2021-059K","48888","6908.308","95.240","537.173","523.173","0"
"GENERATED VIA SPACETRACK.ORG API","18 SPCS","48888","SPACEBEE-103","PAYLOAD","U","21059K","2021-07-25 14:33:00","826848","15.11978601","0.0010149","97.517","334.991","143.1325","217.0605","0","999","450","0.000134","0.00002237","0","3083115","0 SPACEBEE-103","1 48888U 21059K   21206.60625957  .00002237  00000-0  13400-3 0  9999","2 48888  97.5170 334.9910 0010149 143.1325 217.0605 15.11978601  4509","2021-059K","48888","6908.304","95.239","537.180","523.157","0"
"GENERATED VIA SPACETRACK.ORG API","18 SPCS","48888","SPACEBEE-103","PAYLOAD","U","21059K","2021-07-26 08:01:18","647040","15.11981685","0.0010185","97.5171","335.7074","140.9157","219.2811","0","999","461","0.00012664","0.00002111","0","3083474","0 SPACEBEE-103","1 48888U 21059K   21207.33424360  .00002111  00000-0  12664-3 0  9997","2 48888  97.5171 335.7074 0010185 140.9157 219.2811 15.11981685  4619","2021-059K","48888","6908.294","95.239","537.195","523.123","0"
